{
    "links": {
        "self": "http://www.neowsapp.com/rest/v1/neo/3785680?api_key=iIulBulltgU6a56xZRHN4H3l9WmuAYTsLGpBGhQ2"
    },
    "id": "3785680",
    "neo_reference_id": "3785680",
    "name": "(2017 TT1)",
    "designation": "2017 TT1",
    "nasa_jpl_url": "http://ssd.jpl.nasa.gov/sbdb.cgi?sstr=3785680",
    "absolute_magnitude_h": 27.2,
    "estimated_diameter": {
        "kilometers": {
            "estimated_diameter_min": 0.0096506147,
            "estimated_diameter_max": 0.0215794305
        },
        "meters": {
            "estimated_diameter_min": 9.6506146958,
            "estimated_diameter_max": 21.5794304844
        },
        "miles": {
            "estimated_diameter_min": 0.0059966121,
            "estimated_diameter_max": 0.0134088323
        },
        "feet": {
            "estimated_diameter_min": 31.6621227185,
            "estimated_diameter_max": 70.7986587106
        }
    },
    "is_potentially_hazardous_asteroid": false,
    "close_approach_data": [
        {
            "close_approach_date": "2017-10-13",
            "close_approach_date_full": "2017-Oct-13 03:13",
            "epoch_date_close_approach": 1507864380000,
            "relative_velocity": {
                "kilometers_per_second": "10.695852464",
                "kilometers_per_hour": "38505.0688703284",
                "miles_per_hour": "23925.5523766771"
            },
            "miss_distance": {
                "astronomical": "0.0064693705",
                "lunar": "2.5165851245",
                "kilometers": "967804.047040835",
                "miles": "601365.549140123"
            },
            "orbiting_body": "Earth"
        },
        {
            "close_approach_date": "2017-10-13",
            "close_approach_date_full": "2017-Oct-13 08:55",
            "epoch_date_close_approach": 1507884900000,
            "relative_velocity": {
                "kilometers_per_second": "10.235792789",
                "kilometers_per_hour": "36848.8540404961",
                "miles_per_hour": "22896.4448897738"
            },
            "miss_distance": {
                "astronomical": "0.0063391643",
                "lunar": "2.4659349127",
                "kilometers": "948325.476860041",
                "miles": "589262.1268729258"
            },
            "orbiting_body": "Moon"
        },
        {
            "close_approach_date": "2165-08-22",
            "close_approach_date_full": "2165-Aug-22 20:26",
            "epoch_date_close_approach": 6173871960000,
            "relative_velocity": {
                "kilometers_per_second": "27.3123535368",
                "kilometers_per_hour": "98324.4727326064",
                "miles_per_hour": "61095.0036265464"
            },
            "miss_distance": {
                "astronomical": "0.4649751379",
                "lunar": "180.8753286431",
                "kilometers": "69559290.232796273",
                "miles": "43222138.7134556474"
            },
            "orbiting_body": "Earth"
        }
    ],
    "orbital_data": {
        "orbit_id": "5",
        "orbit_determination_date": "2017-11-06 06:17:50",
        "first_observation_date": "2017-10-10",
        "last_observation_date": "2017-10-13",
        "data_arc_in_days": 3,
        "observations_used": 27,
        "orbit_uncertainty": "7",
        "minimum_orbit_intersection": ".00918831",
        "jupiter_tisserand_invariant": "3.142",
        "epoch_osculation": "2459000.5",
        "eccentricity": ".6204314976565536",
        "semi_major_axis": "2.528658857808432",
        "inclination": "7.297743746474116",
        "ascending_node_longitude": "197.9026833449482",
        "orbital_period": "1468.702352818889",
        "perihelion_distance": ".9597992555958365",
        "perihelion_argument": "210.5204223458674",
        "aphelion_distance": "4.097518460021028",
        "perihelion_time": "2459529.128405496023",
        "mean_anomaly": "230.4256001133842",
        "mean_motion": ".2451143346431289",
        "equinox": "J2000",
        "orbit_class": {
            "orbit_class_type": "APO",
            "orbit_class_description": "Near-Earth asteroid orbits which cross the Earth’s orbit similar to that of 1862 Apollo",
            "orbit_class_range": "a (semi-major axis) > 1.0 AU; q (perihelion) < 1.017 AU"
        }
    },
    "is_sentry_object": false
}